INTELSAT 35E (IS-35E)   
1 42818U 17041A   26167.74935699 -.00000241  00000+0  00000+0 0  9996
2 42818   0.0182 331.6195 0001598 107.3554  61.2978  1.00268682 32812
COSMOS 2520             
1 42907U 17046A   26167.26605554  .00000136  00000+0  00000+0 0  9993
2 42907   0.0473  89.6127 0001510  18.8355 296.8687  1.00270799 32385
TDRS 13                 
1 42915U 17047A   26167.82524409 -.00000104  00000+0  00000+0 0  9990
2 42915   3.4517   2.7361 0014450 106.3621  81.6405  1.00271480 32344
QZS-3 (MICHIBIKI-3)     
1 42917U 17048A   26167.85260465 -.00000351  00000+0  00000+0 0  9999
2 42917   0.0688 169.8241 0001843 272.7581 256.4293  1.00276177 32250
AMAZONAS 5              
1 42934U 17053A   26167.74398365 -.00000285  00000+0  00000+0 0  9999
2 42934   0.0299 328.6551 0002062  58.1833  84.9962  1.00271034 32047
ASIASAT 9               
1 42942U 17057A   26167.78030131  .00000000  00000+0  00000+0 0  9994
2 42942   0.0420  48.7885 0002496  27.1098 232.2103  1.00264039 31852
INTELSAT 37E (IS-37E)   
1 42950U 17059A   26167.75256367 -.00000143  00000+0  00000+0 0  9992
2 42950   0.0164  21.9885 0002368  84.8898  51.0770  1.00271710 32060
BSAT-4A                 
1 42951U 17059B   26165.81711391 -.00000344  00000+0  00000+0 0  9994
2 42951   0.0440  28.2570 0003862  39.4526 239.3850  1.00269277 31775
QZS-4 (MICHIBIKI-4)     
1 42965U 17062A   26167.35401075 -.00000348  00000+0  00000+0 0  9993
2 42965  40.1083 343.4922 0745175 271.7618 273.8478  1.00250450 31798
SES-11 (ECHOSTAR 105)   
1 42967U 17063A   26167.94925976 -.00000092  00000+0  00000+0 0  9998
2 42967   0.0163 339.2920 0002695  91.4418  71.2609  1.00270676 31724
KOREASAT 5A             
1 42984U 17067A   26167.76251714 -.00000361  00000+0  00000+0 0  9992
2 42984   0.0144  31.4953 0000587  63.7184 197.4720  1.00270926 31520
ALCOMSAT 1              
1 43039U 17078A   26167.73345528 -.00000189  00000+0  00000+0 0  9998
2 43039   0.0335 265.8754 0002237 167.6091  70.7503  1.00269338 31292
SBIRS GEO-3 (USA 282)   
1 43162U 18009A   26167.72457022  .00000125  00000+0  00000+0 0  9991
2 43162   2.1841  12.0948 0001807  65.6242 288.7129  1.00271116 30839
AL YAH 3                
1 43174U 18012A   26167.75221700 -.00000159  00000+0  00000+0 0  9991
2 43174   1.5513  83.1113 0003875   0.7305  71.8540  1.00269871 30845
SES-14                  
1 43175U 18012B   26167.74675698 -.00000281  00000+0  00000+0 0  9996
2 43175   0.0216  33.3553 0000810  49.1617  43.8189  1.00269888  7024
GOES 17                 
1 43226U 18022A   26167.66685590 -.00000185  00000+0  00000+0 0  9990
2 43226   0.9364  85.7204 0000413  33.4338 296.3372  1.00269739 30416
HISPASAT 30W-6          
1 43228U 18023A   26167.39376889 -.00000218  00000+0  00000+0 0  9998
2 43228   0.0486  44.7049 0005672  25.0402 306.6684  1.00270010 30399
SUPERBIRD-B3            
1 43271U 18033A   26167.71694352 -.00000095  00000+0  00000+0 0  9994
2 43271   0.0152 348.1525 0000916  89.9252 247.0085  1.00271513 30050
HYLAS 4                 
1 43272U 18033B   26166.68015156 -.00000232  00000+0  00000+0 0  9992
2 43272   0.0163  21.0818 0000766  53.9327  40.2992  1.00268678 30050
IRNSS-1I                
1 43286U 18035A   26166.83981681  .00000062  00000+0  00000+0 0  9991
2 43286  28.7520  74.2167 0017811 181.5598   5.5147  1.00272046 30064
USA 283                 
1 43339U 18036A   26166.49948147  .00000000  00000+0  00000+0 0  9995
2 43339   0.0182   1.8047 0000468 172.3670  43.5385  1.00267801 25278
COSMOS 2526             
1 43432U 18037A   26167.85277800 -.00000347  00000+0  00000+0 0  9997
2 43432   0.0301  74.6789 0000521 134.9835 130.5176  1.00270287 29959
APSTAR-6C               
1 43450U 18041A   26167.64012825 -.00000320  00000+0  00000+0 0  9994
2 43450   0.0252  11.4570 0000963 329.5517 288.3422  1.00269117 29800
BANGABANDHUSAT-1        
1 43463U 18044A   26167.76778735 -.00000365  00000+0  00000+0 0  9992
2 43463   0.0240  77.0295 0001626   4.9700 218.5323  1.00269974 29703
SES-12                  
1 43488U 18049A   26167.77492794 -.00000271  00000+0  00000+0 0  9999
2 43488   0.0164  19.2893 0000755 260.7109 359.0132  1.00268346 29413
FENGYUN 2H              
1 43491U 18050A   26167.77186332 -.00000134  00000+0  00000+0 0  9991
2 43491   3.0297  79.0759 0001983 138.6061  44.6323  1.00269582 29430
BEIDOU-2 IGSO-7         
1 43539U 18057A   26166.92202744 -.00000027  00000+0  00000+0 0  9994
2 43539  55.1938 163.0687 0105067 238.0100 305.1025  1.00251416 29110
TELSTAR 19V             
1 43562U 18059A   26166.24653449 -.00000276  00000+0  00000+0 0  9995
2 43562   0.0197 163.3787 0002418 312.0896 173.8125  1.00269701 29125
TELKOM 4 (MERAH PUTIH)  
1 43587U 18064A   26167.84879131 -.00000347  00000+0  00000+0 0  9992
2 43587   0.0170 313.5376 0001234 165.5776 199.5551  1.00270495 28870
TELSTAR 18V             
1 43611U 18069A   26165.78730205 -.00000288  00000+0  00000+0 0  9998
2 43611   0.0122 311.2047 0001612 128.7151 244.5797  1.00270067 28613
AZERSPACE 2 (IS-38)     
1 43632U 18074A   26167.76510329  .00000134  00000+0  00000+0 0  9999
2 43632   0.0176   5.0049 0001231  81.7615 138.8031  1.00270536 28443
HORIZONS-3E             
1 43633U 18074B   26167.71833020 -.00000033  00000+0  00000+0 0  9990
2 43633   0.0189 168.8622 0000860 107.3388  56.3811  1.00271949 28339
